{
  "links" : {
    "next" : "https://api.nasa.gov/neo/rest/v1/feed?start_date=2007-06-16&end_date=2007-06-16&detailed=true&api_key=t0TVs3DtDT2H8Oy2Zy8m2eVrNsAVKAexjcZXUckd",
    "prev" : "https://api.nasa.gov/neo/rest/v1/feed?start_date=2007-06-14&end_date=2007-06-14&detailed=true&api_key=t0TVs3DtDT2H8Oy2Zy8m2eVrNsAVKAexjcZXUckd",
    "self" : "https://api.nasa.gov/neo/rest/v1/feed?start_date=2007-06-15&end_date=2007-06-15&detailed=true&api_key=t0TVs3DtDT2H8Oy2Zy8m2eVrNsAVKAexjcZXUckd"
  },
  "element_count" : 6,
  "near_earth_objects" : {
    "2007-06-15" : [ {
      "links" : {
        "self" : "https://api.nasa.gov/neo/rest/v1/neo/2136849?api_key=t0TVs3DtDT2H8Oy2Zy8m2eVrNsAVKAexjcZXUckd"
      },
      "neo_reference_id" : "2136849",
      "name" : "136849 (1998 CS1)",
      "nasa_jpl_url" : "http://ssd.jpl.nasa.gov/sbdb.cgi?sstr=2136849",
      "absolute_magnitude_h" : 17.7,
      "estimated_diameter" : {
        "kilometers" : {
          "estimated_diameter_min" : 0.7665755735,
          "estimated_diameter_max" : 1.7141150923
        },
        "meters" : {
          "estimated_diameter_min" : 766.5755735311,
          "estimated_diameter_max" : 1714.1150923063
        },
        "miles" : {
          "estimated_diameter_min" : 0.4763278307,
          "estimated_diameter_max" : 1.065101409
        },
        "feet" : {
          "estimated_diameter_min" : 2515.0118046636,
          "estimated_diameter_max" : 5623.7373594423
        }
      },
      "is_potentially_hazardous_asteroid" : true,
      "close_approach_data" : [ {
        "close_approach_date" : "2007-06-15",
        "epoch_date_close_approach" : 1181890800000,
        "relative_velocity" : {
          "kilometers_per_second" : "12.6302854881",
          "kilometers_per_hour" : "45469.0277573018",
          "miles_per_hour" : "28252.685608419"
        },
        "miss_distance" : {
          "astronomical" : "0.2871291756",
          "lunar" : "111.6932449341",
          "kilometers" : "42953912",
          "miles" : "26690324"
        },
        "orbiting_body" : "Earth"
      } ],
      "orbital_data" : {
        "orbit_id" : "88",
        "orbit_determination_date" : "2017-04-06 09:28:00",
        "orbit_uncertainty" : "0",
        "minimum_orbit_intersection" : ".0196183",
        "jupiter_tisserand_invariant" : "4.354",
        "epoch_osculation" : "2458000.5",
        "eccentricity" : ".5783481357003427",
        "semi_major_axis" : "1.491506147283343",
        "inclination" : "7.789457784277946",
        "ascending_node_longitude" : "110.79376233939",
        "orbital_period" : "665.3283025009241",
        "perihelion_distance" : ".6288963476164209",
        "perihelion_argument" : "97.6586703552265",
        "aphelion_distance" : "2.354115946950265",
        "perihelion_time" : "2458226.221807987592",
        "mean_anomaly" : "237.8650320900482",
        "mean_motion" : ".5410862556827725",
        "equinox" : "J2000"
      }
    }, {
      "links" : {
        "self" : "https://api.nasa.gov/neo/rest/v1/neo/2230111?api_key=t0TVs3DtDT2H8Oy2Zy8m2eVrNsAVKAexjcZXUckd"
      },
      "neo_reference_id" : "2230111",
      "name" : "230111 (2001 BE10)",
      "nasa_jpl_url" : "http://ssd.jpl.nasa.gov/sbdb.cgi?sstr=2230111",
      "absolute_magnitude_h" : 19.1,
      "estimated_diameter" : {
        "kilometers" : {
          "estimated_diameter_min" : 0.4023045798,
          "estimated_diameter_max" : 0.8995803882
        },
        "meters" : {
          "estimated_diameter_min" : 402.3045798343,
          "estimated_diameter_max" : 899.5803881691
        },
        "miles" : {
          "estimated_diameter_min" : 0.2499803991,
          "estimated_diameter_max" : 0.5589731654
        },
        "feet" : {
          "estimated_diameter_min" : 1319.8969577037,
          "estimated_diameter_max" : 2951.3793207207
        }
      },
      "is_potentially_hazardous_asteroid" : true,
      "close_approach_data" : [ {
        "close_approach_date" : "2007-06-15",
        "epoch_date_close_approach" : 1181890800000,
        "relative_velocity" : {
          "kilometers_per_second" : "15.8610542796",
          "kilometers_per_hour" : "57099.7954065881",
          "miles_per_hour" : "35479.5923180547"
        },
        "miss_distance" : {
          "astronomical" : "0.4199861891",
          "lunar" : "163.3746337891",
          "kilometers" : "62829040",
          "miles" : "39040156"
        },
        "orbiting_body" : "Earth"
      } ],
      "orbital_data" : {
        "orbit_id" : "113",
        "orbit_determination_date" : "2017-04-06 09:25:10",
        "orbit_uncertainty" : "0",
        "minimum_orbit_intersection" : ".0423433",
        "jupiter_tisserand_invariant" : "7.026",
        "epoch_osculation" : "2458000.5",
        "eccentricity" : ".3691459782374203",
        "semi_major_axis" : ".8231696306005475",
        "inclination" : "17.50753782837232",
        "ascending_node_longitude" : "297.7973710117565",
        "orbital_period" : "272.7925064315339",
        "perihelion_distance" : ".5192998720571724",
        "perihelion_argument" : "30.57114985389649",
        "aphelion_distance" : "1.127039389143923",
        "perihelion_time" : "2458113.728986495010",
        "mean_anomaly" : "210.5734791932989",
        "mean_motion" : "1.319684344373124",
        "equinox" : "J2000"
      }
    }, {
      "links" : {
        "self" : "https://api.nasa.gov/neo/rest/v1/neo/2417871?api_key=t0TVs3DtDT2H8Oy2Zy8m2eVrNsAVKAexjcZXUckd"
      },
      "neo_reference_id" : "2417871",
      "name" : "417871 (2007 MB24)",
      "nasa_jpl_url" : "http://ssd.jpl.nasa.gov/sbdb.cgi?sstr=2417871",
      "absolute_magnitude_h" : 18.2,
      "estimated_diameter" : {
        "kilometers" : {
          "estimated_diameter_min" : 0.6089126221,
          "estimated_diameter_max" : 1.3615700154
        },
        "meters" : {
          "estimated_diameter_min" : 608.9126221057,
          "estimated_diameter_max" : 1361.5700153859
        },
        "miles" : {
          "estimated_diameter_min" : 0.3783606449,
          "estimated_diameter_max" : 0.846040122
        },
        "feet" : {
          "estimated_diameter_min" : 1997.7448871092,
          "estimated_diameter_max" : 4467.0933692788
        }
      },
      "is_potentially_hazardous_asteroid" : true,
      "close_approach_data" : [ {
        "close_approach_date" : "2007-06-15",
        "epoch_date_close_approach" : 1181890800000,
        "relative_velocity" : {
          "kilometers_per_second" : "28.0613354895",
          "kilometers_per_hour" : "101020.8077620402",
          "miles_per_hour" : "62770.4013563632"
        },
        "miss_distance" : {
          "astronomical" : "0.2040392226",
          "lunar" : "79.3712539673",
          "kilometers" : "30523832",
          "miles" : "18966630"
        },
        "orbiting_body" : "Earth"
      } ],
      "orbital_data" : {
        "orbit_id" : "46",
        "orbit_determination_date" : "2017-04-06 09:21:16",
        "orbit_uncertainty" : "0",
        "minimum_orbit_intersection" : ".0261465",
        "jupiter_tisserand_invariant" : "3.351",
        "epoch_osculation" : "2458000.5",
        "eccentricity" : ".7000402220682613",
        "semi_major_axis" : "1.875934417959248",
        "inclination" : "47.71196594029756",
        "ascending_node_longitude" : "271.1712061514428",
        "orbital_period" : "938.479745800314",
        "perihelion_distance" : ".5627048714255615",
        "perihelion_argument" : "269.1576575402622",
        "aphelion_distance" : "3.189163964492935",
        "perihelion_time" : "2457970.578359021883",
        "mean_anomaly" : "11.47791500064396",
        "mean_motion" : ".3835991150698732",
        "equinox" : "J2000"
      }
    } ]
  }
}